NORAD_CAT_ID,OBJECT_NAME,OBJECT_TYPE,EPOCH,MEAN_MOTION,ECCENTRICITY,INCLINATION,RA_OF_ASC_NODE,ARG_OF_PERICENTER,MEAN_ANOMALY,BSTAR,MEAN_MOTION_DOT,MEAN_MOTION_DDOT,TLE_LINE0,TLE_LINE1,TLE_LINE2,SEMIMAJOR_AXIS,PERIOD,APOGEE,PERIGEE,DECAYED
55916.0,STARLINK-5796,PAYLOAD,2023-11-04 16:34:29,14.98352601,0.0002496,69.9992,302.8599,275.89,84.1975,-0.00026536,-3.259e-05,0.0,0 STARLINK-5796,1 55916U 23037C   23308.69061885 -.00003259  00000-0 -26536-3 0  9996,2 55916  69.9992 302.8599 0002496 275.8900  84.1975 14.98352601 35607,6950.123,96.106,573.723,570.253,0.0
55916.0,STARLINK-5796,PAYLOAD,2023-11-05 03:47:26,14.98333428,0.0002792,69.9982,301.6816,272.6501,87.4339,0.0001186,1.322e-05,0.0,0 STARLINK-5796,1 55916U 23037C   23309.15794535  .00001322  00000-0  11860-3 0  9994,2 55916  69.9982 301.6816 0002792 272.6501  87.4339 14.98333428 35679,6950.182,96.107,573.988,570.107,0.0
55916.0,STARLINK-5796,PAYLOAD,2023-11-05 08:35:50,14.98335625,0.000247,69.9988,301.1778,258.2444,101.8438,0.00017908,2.045e-05,0.0,0 STARLINK-5796,1 55916U 23037C   23309.35822214  .00002045  00000-0  17908-3 0  9994,2 55916  69.9988 301.1778 0002470 258.2444 101.8438 14.98335625 35364,6950.175,96.107,573.757,570.324,0.0
55916.0,STARLINK-5796,PAYLOAD,2023-11-05 16:36:29,14.98361762,0.0002667,69.9992,300.3349,273.4403,86.6451,-0.00041903,-5.093e-05,0.0,0 STARLINK-5796,1 55916U 23037C   23309.69201187 -.00005093  00000-0 -41903-3 0  9991,2 55916  69.9992 300.3349 0002667 273.4403  86.6451 14.98361762 35755,6950.095,96.105,573.813,570.106,0.0
55916.0,STARLINK-5796,PAYLOAD,2023-11-05 23:01:02,14.9833923,0.0002467,69.999,299.6624,265.433,94.6548,0.0001506,1.705e-05,0.0,0 STARLINK-5796,1 55916U 23037C   23309.95905965  .00001705  00000-0  15060-3 0  9994,2 55916  69.9990 299.6624 0002467 265.4330  94.6548 14.98339230 35455,6950.164,96.106,573.744,570.315,0.0
55916.0,STARLINK-5796,PAYLOAD,2023-11-06 02:13:18,14.9834042,0.0002692,70.0006,299.3272,263.125,96.9603,0.00019682,2.257e-05,0.0,0 STARLINK-5796,1 55916U 23037C   23310.09257865  .00002257  00000-0  19682-3 0  9997,2 55916  70.0006 299.3272 0002692 263.1250  96.9603 14.98340420 35818,6950.161,96.106,573.897,570.155,0.0
55916.0,STARLINK-5796,PAYLOAD,2023-11-06 10:13:58,14.98347602,0.0002719,69.9996,298.4831,264.0627,96.0222,0.0002719,3.154e-05,0.0,0 STARLINK-5796,1 55916U 23037C   23310.42637198  .00003154  00000-0  27190-3 0  9995,2 55916  69.9996 298.4831 0002719 264.0627  96.0222 14.98347602 35527,6950.138,96.106,573.893,570.114,0.0
55916.0,STARLINK-5796,PAYLOAD,2023-11-07 03:51:29,14.98310476,0.0002836,69.9995,296.6325,265.6446,94.439,-0.00034267,-4.177e-05,0.0,0 STARLINK-5796,1 55916U 23037C   23311.16075592 -.00004177  00000-0 -34267-3 0  9992,2 55916  69.9995 296.6325 0002836 265.6446  94.4390 14.98310476 35976,6950.253,96.108,574.089,570.147,0.0
55916.0,STARLINK-5796,PAYLOAD,2023-11-07 08:39:53,14.98306393,0.0002845,69.9995,296.1271,271.0407,89.0426,-0.00036015,-4.385e-05,0.0,0 STARLINK-5796,1 55916U 23037C   23311.36104103 -.00004385  00000-0 -36015-3 0  9999,2 55916  69.9995 296.1271 0002845 271.0407  89.0426 14.98306393 35668,6950.266,96.109,574.108,570.154,0.0
55916.0,STARLINK-5796,PAYLOAD,2023-11-07 16:40:34,14.98315086,0.0002994,70.0002,295.2843,268.1778,91.9039,-0.00013322,-1.682e-05,0.0,0 STARLINK-5796,1 55916U 23037C   23311.69483890 -.00001682  00000-0 -13322-3 0  9991,2 55916  70.0002 295.2843 0002994 268.1778  91.9039 14.98315086 36053,6950.239,96.108,574.185,570.023,0.0
55916.0,STARLINK-5796,PAYLOAD,2023-11-08 08:41:54,14.98332642,0.0002839,69.9982,293.6029,265.9316,94.1519,5.5638e-05,5.71e-06,0.0,0 STARLINK-5796,1 55916U 23037C   23312.36243426  .00000571  00000-0  55638-4 0  9996,2 55916  69.9982 293.6029 0002839 265.9316  94.1519 14.98332642 36152,6950.185,96.107,574.023,570.077,0.0
55916.0,STARLINK-5796,PAYLOAD,2023-11-08 16:42:33,14.98348324,0.0002802,69.9989,292.7635,272.5335,87.5503,-0.00012515,-1.587e-05,0.0,0 STARLINK-5796,1 55916U 23037C   23312.69622636 -.00001587  00000-0 -12515-3 0  9992,2 55916  69.9989 292.7635 0002802 272.5335  87.5503 14.98348324 36206,6950.136,96.106,573.949,570.054,0.0
55916.0,STARLINK-5796,PAYLOAD,2023-11-09 02:19:22,14.98325196,0.0002787,69.9993,291.7515,272.6494,87.4346,0.00053902,6.343e-05,0.0,0 STARLINK-5796,1 55916U 23037C   23313.09679220  .00006343  00000-0  53902-3 0  9996,2 55916  69.9993 291.7515 0002787 272.6494  87.4346 14.98325196 36268,6950.208,96.107,574.01,570.136,0.0
55916.0,STARLINK-5796,PAYLOAD,2023-11-09 08:43:54,14.98335311,0.0002747,69.9984,291.0769,266.8009,93.2836,0.00056126,6.611e-05,0.0,0 STARLINK-5796,1 55916U 23037C   23313.36382541  .00006611  00000-0  56126-3 0  9992,2 55916  69.9984 291.0769 0002747 266.8009  93.2836 14.98335311 36309,6950.176,96.107,573.951,570.132,0.0
55916.0,STARLINK-5796,PAYLOAD,2023-11-10 03:57:31,14.98339429,0.0002943,69.9986,289.0591,267.8366,92.2456,0.00023874,2.757e-05,0.0,0 STARLINK-5796,1 55916U 23037C   23314.16494676  .00002757  00000-0  23874-3 0  9995,2 55916  69.9986 289.0591 0002943 267.8366  92.2456 14.98339429 36420,6950.164,96.106,574.074,569.983,0.0
55916.0,STARLINK-5796,PAYLOAD,2023-11-10 08:45:55,14.9834449,0.000283,69.9984,288.551,268.8609,91.2225,0.00017643,2.013e-05,0.0,0 STARLINK-5796,1 55916U 23037C   23314.36522432  .00002013  00000-0  17643-3 0  9991,2 55916  69.9984 288.5510 0002830 268.8609  91.2225 14.98344490 36112,6950.148,96.106,573.98,570.046,0.0
55916.0,STARLINK-5796,PAYLOAD,2023-11-10 15:10:26,14.98369406,0.0002562,70.0007,287.8772,273.8087,86.278,-0.00062367,-7.534e-05,0.0,0 STARLINK-5796,1 55916U 23037C   23314.63225603 -.00007534  00000-0 -62367-3 0  9999,2 55916  70.0007 287.8772 0002562 273.8087  86.2780 14.98369406 36496,6950.071,96.104,573.717,570.155,0.0
55916.0,STARLINK-5796,PAYLOAD,2023-11-11 03:59:32,14.98339538,0.0002675,69.9989,286.5312,269.5865,90.4988,-0.00010545,-1.351e-05,0.0,0 STARLINK-5796,1 55916U 23037C   23315.16634634 -.00001351  00000-0 -10545-3 0  9998,2 55916  69.9989 286.5312 0002675 269.5865  90.4988 14.98339538 36578,6950.163,96.106,573.888,570.169,0.0
55916.0,STARLINK-5796,PAYLOAD,2023-11-11 07:11:48,14.98339766,0.000249,69.999,286.1949,260.0905,99.9973,-5.9884e-05,-8.08e-06,0.0,0 STARLINK-5796,1 55916U 23037C   23315.29986477 -.00000808  00000-0 -59884-4 0  9993,2 55916  69.9990 286.1949 0002490 260.0905  99.9973 14.98339766 36254,6950.163,96.106,573.758,570.297,0.0
55916.0,STARLINK-5796,PAYLOAD,2023-11-11 21:37:00,14.98332365,0.0002692,69.9989,284.6801,268.0993,91.9858,-1.5097e-05,-2.73e-06,0.0,0 STARLINK-5796,1 55916U 23037C   23315.90070558 -.00000273  00000-0 -15097-4 0  9999,2 55916  69.9989 284.6801 0002692 268.0993  91.9858 14.98332365 36343,6950.186,96.107,573.922,570.18,0.0
55916.0,STARLINK-5796,PAYLOAD,2023-11-12 04:01:33,14.9833292,0.0002699,69.9989,284.0069,267.8475,92.2375,-1.0408e-05,-2.17e-06,0.0,0 STARLINK-5796,1 55916U 23037C   23316.16774450 -.00000217  00000-0 -10408-4 0  9999,2 55916  69.9989 284.0069 0002699 267.8475  92.2375 14.98332920 36729,6950.184,96.107,573.925,570.173,0.0
55916.0,STARLINK-5796,PAYLOAD,2023-11-12 07:13:49,14.9833238,0.0002683,69.999,283.6705,266.8797,93.2055,-1.1426e-05,-2.29e-06,0.0,0 STARLINK-5796,1 55916U 23037C   23316.30126524 -.00000229  00000-0 -11426-4 0  9992,2 55916  69.9990 283.6705 0002683 266.8797  93.2055 14.98332380 36403,6950.186,96.107,573.915,570.186,0.0
55916.0,STARLINK-5796,PAYLOAD,2023-11-12 21:39:01,14.98330274,0.0002889,69.9989,282.1541,270.1383,89.9445,0.00012886,1.445e-05,0.0,0 STARLINK-5796,1 55916U 23037C   23316.90210194  .00001445  00000-0  12886-3 0  9994,2 55916  69.9989 282.1541 0002889 270.1383  89.9445 14.98330274 36494,6950.192,96.107,574.065,570.049,0.0
55916.0,STARLINK-5796,PAYLOAD,2023-11-13 04:03:33,14.98335366,0.0002533,69.9992,281.482,255.8364,104.2514,0.00011069,1.228e-05,0.0,0 STARLINK-5796,1 55916U 23037C   23317.16913865  .00001228  00000-0  11069-3 0  9999,2 55916  69.9992 281.4820 0002533 255.8364 104.2514 14.98335366 36872,6950.176,96.107,573.802,570.281,0.0
55916.0,STARLINK-5796,PAYLOAD,2023-11-13 07:15:49,14.98337735,0.0002574,69.9991,281.1451,261.9393,98.1474,0.00013785,1.553e-05,0.0,0 STARLINK-5796,1 55916U 23037C   23317.30265650  .00001553  00000-0  13785-3 0  9995,2 55916  69.9991 281.1451 0002574 261.9393  98.1474 14.98337735 36556,6950.169,96.107,573.823,570.245,0.0
55916.0,STARLINK-5796,PAYLOAD,2023-11-13 15:16:31,14.98317343,0.0002143,70.0005,280.3035,283.0055,77.0865,0.00029761,3.459e-05,0.0,0 STARLINK-5796,1 55916U 23037C   23317.63647013  .00003459  00000-0  29761-3 0  9996,2 55916  70.0005 280.3035 0002143 283.0055  77.0865 14.98317343 36942,6950.232,96.108,573.586,570.608,0.0
55916.0,STARLINK-5796,PAYLOAD,2023-11-14 04:05:35,14.98328415,0.0002614,69.9987,278.9555,269.22,90.8659,3.0908e-05,2.76e-06,0.0,0 STARLINK-5796,1 55916U 23037C   23318.17054510  .00000276  00000-0  30908-4 0  9990,2 55916  69.9987 278.9555 0002614 269.2200  90.8659 14.98328415 37025,6950.198,96.107,573.88,570.246,0.0
55916.0,STARLINK-5796,PAYLOAD,2023-11-14 07:17:51,14.98327039,0.0002694,69.9992,278.6199,266.3479,93.7372,3.6742e-05,3.45e-06,0.0,0 STARLINK-5796,1 55916U 23037C   23318.30406604  .00000345  00000-0  36742-4 0  9999,2 55916  69.9992 278.6199 0002694 266.3479  93.7372 14.98327039 36705,6950.202,96.107,573.939,570.195,0.0
55916.0,STARLINK-5796,PAYLOAD,2023-11-14 20:06:55,14.98329486,0.0002935,69.9993,277.273,270.2461,89.8362,2.0723e-05,1.54e-06,0.0,0 STARLINK-5796,1 55916U 23037C   23318.83814503  .00000154  00000-0  20723-4 0  9998,2 55916  69.9993 277.2730 0002935 270.2461  89.8362 14.98329486 36786,6950.194,96.107,574.099,570.02,0.0
55916.0,STARLINK-5796,PAYLOAD,2023-11-15 07:19:52,14.98331696,0.000226,69.9998,276.0941,262.3192,97.771,3.2314e-05,2.93e-06,0.0,0 STARLINK-5796,1 55916U 23037C   23319.30546395  .00000293  00000-0  32314-4 0  9995,2 55916  69.9998 276.0941 0002260 262.3192  97.7710 14.98331696 37193,6950.188,96.107,573.623,570.482,0.0
